0 COSMOS 2251 DEB
1 34996U 93036AFU 13275.46499261  .00025625  00000-0  19528-2 0  2755
2 34996 073.9990 330.0686 0131261 231.6257 127.6712 14.95285259240547
0 COSMOS 2251 DEB
1 34996U 93036AFU 13277.47202679  .00034033  00000-0  26000-2 0  2760
2 34996 074.0035 326.0383 0128069 225.0857 134.2639 14.95445170240848
0 COSMOS 2251 DEB
1 34996U 93036AFU 13277.80646594  .00027052  00000-0  21265-2 0  2777
2 34996 073.9623 325.3704 0117162 231.1955 127.6078 14.95431783240890
0 COSMOS 2251 DEB
1 34996U 93036AFU 13281.41879415  .00028198  00000-0  21823-2 0  2782
2 34996 073.9653 318.0259 0121221 221.2788 137.9186 14.95639082241439
0 COSMOS 2251 DEB
1 34996U 93036AFU 13283.75983564  .00026897  00000-0  20866-2 0  2793
2 34996 073.9706 313.3123 0119110 214.1054 144.9242 14.95749567241786
0 COSMOS 2251 DEB
1 34996U 93036AFU 13283.75987146  .00029245  00000-0  22125-2 0  2793
2 34996 073.9965 313.2897 0129123 213.3062 146.0440 14.95760911241784
0 COSMOS 2251 DEB
1 34996U 93036AFU 13285.69948561  .00027655  00000-0  21245-2 0  2803
2 34996 073.9837 309.3971 0121739 207.7347 151.8912 14.95866466242072
0 COSMOS 2251 DEB
1 34996U 93036AFU 13287.70577596  .00028459  00000-0  21711-2 0  2815
2 34996 073.9858 305.3229 0123125 202.9318 156.8913 14.95992160242373
0 COSMOS 2251 DEB
1 34996U 93036AFU 13289.37753091  .00029096  00000-0  22101-2 0  2829
2 34996 073.9869 301.8999 0123620 202.8102 157.0399 14.96100600242620
